[{"OBJECT_NAME":"ONEWEB-0617","OBJECT_ID":"2023-004U","EPOCH":"2026-03-09T21:08:56.094720","MEAN_MOTION":13.11418108,"ECCENTRICITY":0.00020106,"INCLINATION":87.887,"RA_OF_ASC_NODE":40.8075,"ARG_OF_PERICENTER":73.3218,"MEAN_ANOMALY":286.813,"EPHEMERIS_TYPE":0,"CLASSIFICATION_TYPE":"U","NORAD_CAT_ID":55158,"ELEMENT_SET_NO":999,"REV_AT_EPOCH":15284,"BSTAR":-0.00063472062,"MEAN_MOTION_DOT":-2.12e-6,"MEAN_MOTION_DDOT":0},{"OBJECT_NAME":"DELTA 1 DEB","OBJECT_ID":"1975-052T","EPOCH":"2026-03-09T08:00:48.699072","MEAN_MOTION":13.24842524,"ECCENTRICITY":0.00998989,"INCLINATION":99.8162,"RA_OF_ASC_NODE":7.833,"ARG_OF_PERICENTER":161.9957,"MEAN_ANOMALY":329.5879,"EPHEMERIS_TYPE":0,"CLASSIFICATION_TYPE":"U","NORAD_CAT_ID":21282,"ELEMENT_SET_NO":999,"REV_AT_EPOCH":68464,"BSTAR":0.00012666868,"MEAN_MOTION_DOT":1.5e-7,"MEAN_MOTION_DDOT":0}]
